{
    "links": {
        "self": "http://www.neowsapp.com/rest/v1/neo/54017130?api_key=iIulBulltgU6a56xZRHN4H3l9WmuAYTsLGpBGhQ2"
    },
    "id": "54017130",
    "neo_reference_id": "54017130",
    "name": "(2020 KU1)",
    "designation": "2020 KU1",
    "nasa_jpl_url": "http://ssd.jpl.nasa.gov/sbdb.cgi?sstr=54017130",
    "absolute_magnitude_h": 24.547,
    "estimated_diameter": {
        "kilometers": {
            "estimated_diameter_min": 0.0327457526,
            "estimated_diameter_max": 0.0732217288
        },
        "meters": {
            "estimated_diameter_min": 32.7457526211,
            "estimated_diameter_max": 73.2217288351
        },
        "miles": {
            "estimated_diameter_min": 0.0203472611,
            "estimated_diameter_max": 0.0454978589
        },
        "feet": {
            "estimated_diameter_min": 107.4335750292,
            "estimated_diameter_max": 240.2287768312
        }
    },
    "is_potentially_hazardous_asteroid": false,
    "close_approach_data": [
        {
            "close_approach_date": "1933-10-17",
            "close_approach_date_full": "1933-Oct-17 16:22",
            "epoch_date_close_approach": -1142581080000,
            "relative_velocity": {
                "kilometers_per_second": "14.1295422297",
                "kilometers_per_hour": "50866.3520267843",
                "miles_per_hour": "31606.3730135316"
            },
            "miss_distance": {
                "astronomical": "0.0713502485",
                "lunar": "27.7552466665",
                "kilometers": "10673845.199570695",
                "miles": "6632419.857617791"
            },
            "orbiting_body": "Earth"
        },
        {
            "close_approach_date": "2020-05-29",
            "close_approach_date_full": "2020-May-29 05:00",
            "epoch_date_close_approach": 1590728400000,
            "relative_velocity": {
                "kilometers_per_second": "12.4032148663",
                "kilometers_per_hour": "44651.5735186206",
                "miles_per_hour": "27744.7513343896"
            },
            "miss_distance": {
                "astronomical": "0.0393854464",
                "lunar": "15.3209386496",
                "kilometers": "5891978.890439168",
                "miles": "3661105.9147817984"
            },
            "orbiting_body": "Earth"
        },
        {
            "close_approach_date": "2022-05-05",
            "close_approach_date_full": "2022-May-05 13:20",
            "epoch_date_close_approach": 1651756800000,
            "relative_velocity": {
                "kilometers_per_second": "24.3366119937",
                "kilometers_per_hour": "87611.8031774723",
                "miles_per_hour": "54438.5673688022"
            },
            "miss_distance": {
                "astronomical": "0.3873718065",
                "lunar": "150.6876327285",
                "kilometers": "57949997.150452155",
                "miles": "36008458.494883539"
            },
            "orbiting_body": "Earth"
        }
    ],
    "orbital_data": {
        "orbit_id": "9",
        "orbit_determination_date": "2020-06-14 06:29:38",
        "first_observation_date": "2020-05-19",
        "last_observation_date": "2020-05-28",
        "data_arc_in_days": 9,
        "observations_used": 57,
        "orbit_uncertainty": "8",
        "minimum_orbit_intersection": ".0279732",
        "jupiter_tisserand_invariant": "4.307",
        "epoch_osculation": "2458990.5",
        "eccentricity": ".4788366777299356",
        "semi_major_axis": "1.550797767862647",
        "inclination": "6.647021339826085",
        "ascending_node_longitude": "232.5818619362092",
        "orbital_period": "705.393052154936",
        "perihelion_distance": ".8082189168682972",
        "perihelion_argument": "82.34303779515007",
        "aphelion_distance": "2.293376618856996",
        "perihelion_time": "2459047.461969773492",
        "mean_anomaly": "330.9292442620302",
        "mean_motion": ".510353765039534",
        "equinox": "J2000",
        "orbit_class": {
            "orbit_class_type": "APO",
            "orbit_class_description": "Near-Earth asteroid orbits which cross the Earth’s orbit similar to that of 1862 Apollo",
            "orbit_class_range": "a (semi-major axis) > 1.0 AU; q (perihelion) < 1.017 AU"
        }
    },
    "is_sentry_object": false
}